{"type": "FeatureCollection", "features": [{"type": "Feature", "id": "n2000.5c1f50be-f452-456f-9cd6-f3dd701a099d", "properties": {"naamN2K": "Coepelduynen", "vhnNew": 2, "nr": 96, "beschermin": "HR", "sitecodeV": " ", "sitecodeH": "NL1000030", "status": "Natura 2000-besluit 2010", "kadaster": "OZ4 57913/192", "staatscour": "2009/19769"}, "bbox": [4.399701367692577, 52.20862343692667, 4.43441437864226, 52.23760358479834], "geometry": {"type": "MultiPolygon", "coordinates": [[[[4.4342819299452865, 52.23760358479834], [4.4339620351187685, 52.237555522818624], [4.433881112881014, 52.23755920209389], [4.433844953044382, 52.23755294111605], [4.433768030756422, 52.2375584592467], [4.433768025565858, 52.23749099301624], [4.4337528121905105, 52.237433632712644], [4.433726695245373, 52.23737282456375], [4.433691964402623, 52.23733045917852], [4.433643520800247, 52.237287984878634], [4.433583969357523, 52.23725215491584], [4.4335158671721775, 52.23723140656545], [4.433455811377838, 52.23721913799481], [4.433123152154815, 52.23720272632287], [4.433118225216578, 52.2371901029027], [4.433036946562636, 52.23677504963631], [4.432981853747372, 52.23652309386616], [4.432932972793746, 52.236360217342266], [4.43286817598025, 52.23617026524477], [4.432750319604762, 52.2358958256987], [4.432629443952795, 52.23563664173696], [4.43252070355083, 52.23543426296102], [4.432517911160411, 52.23542998712301], [4.432498539588294, 52.235400217662594], [4.432461518271811, 52.235343268698664], [4.43239118424884, 52.2352469171304], [4.432226223204641, 52.23506722307129], [4.432118234132311, 52.2349615785634], [4.432010287464658, 52.23485930491128], [4.431839766758737, 52.23470962043607], [4.431673147320281, 52.23460209907736], [4.431573596099367, 52.234556353907095], [4.431452186110169, 52.23450593402396], [4.431336180142977, 52.23447016555314], [4.431217917866907, 52.23443831019267], [4.43121822897644, 52.234324646510295], [4.431212872707358, 52.233976313222115], [4.4309971888188535, 52.23394778391267], [4.4305982584470724, 52.23388546530605], [4.430434749672755, 52.23375717557345], [4.43017828644141, 52.23355594729638], [4.430163630744089, 52.23354445113439], [4.4301577929788785, 52.23353987012525], [4.429983425470403, 52.233401929087506], [4.429712806777363, 52.233189559970704], [4.429533153965448, 52.233048574197575], [4.429126909378571, 52.23272976623252], [4.428880043184734, 52.232536033634304], [4.4284464851015475, 52.2321953721294], [4.42841695459165, 52.23217216904984], [4.4283053539300035, 52.23208447901331], [4.427792327985001, 52.232236638491734], [4.42775808618405, 52.232167669795004], [4.427610367579058, 52.23185423523245], [4.427562860324463, 52.231753422727536], [4.427516435002119, 52.23174277365169], [4.427433002603918, 52.23175274055642], [4.427328052068853, 52.23177374815066], [4.427327996180649, 52.23177376028008], [4.427251720534443, 52.231791944819214], [4.427037671771548, 52.231859023067045], [4.426921841644743, 52.231895158185026], [4.426143604041641, 52.232106512688176], [4.426141762381522, 52.23210706037129], [4.426054936374217, 52.23213029332073], [4.425765497964388, 52.23220792463286], [4.425582685854144, 52.23225715744656], [4.425582247094889, 52.23225727431781], [4.425213176604204, 52.23234742739262], [4.425312856457409, 52.232395773087326], [4.425771264507631, 52.23270373506349], [4.4258072371564365, 52.23273267725923], [4.426034953081351, 52.23283817675443], [4.426097782433751, 52.232873237348834], [4.426153066349973, 52.23291890924469], [4.426239428900461, 52.23299769887576], [4.426305561801075, 52.23310778118526], [4.426331810584331, 52.23313664590274], [4.426427151340773, 52.23317590229612], [4.426413539588459, 52.23320781335872], [4.426373565345971, 52.23341197245353], [4.425884071595644, 52.23340658362742], [4.425814721491686, 52.23340854846895], [4.4256205087044895, 52.23341455001376], [4.425146829628098, 52.23340760427024], [4.424956218544281, 52.23340043381145], [4.424709198469243, 52.23337314052208], [4.424459076230756, 52.233341329064274], [4.424181069869151, 52.233266312955976], [4.423620466868051, 52.23309039987713], [4.42352979142096, 52.233062977340445], [4.423485302863675, 52.23303904695846], [4.423308236525872, 52.23287316335382], [4.422886008333134, 52.23267632667134], [4.422444189783016, 52.232477729406604], [4.422438931838309, 52.232474402123096], [4.422381751667635, 52.23249369676909], [4.421898594562357, 52.232656730433135], [4.421685127289285, 52.23272876085548], [4.421685680677532, 52.23272970465943], [4.422045584587973, 52.23316770998283], [4.421987893842484, 52.2331708626302], [4.42198977775848, 52.23317782690029], [4.421998675387137, 52.23320701100117], [4.422011219571539, 52.23324815510491], [4.422032889487622, 52.233284653112406], [4.421860781953502, 52.233374129315536], [4.421838145076861, 52.23338589697178], [4.4218491998532565, 52.23339903388079], [4.421904221231062, 52.23346441793296], [4.422143659248132, 52.233748961214296], [4.4220879474103905, 52.233789860373], [4.42203548228361, 52.23382353964977], [4.421962921948127, 52.23387314827579], [4.421899530746456, 52.23391043240246], [4.421889932214708, 52.23391527326479], [4.421870312442832, 52.23392466750122], [4.421717185418982, 52.233746487002776], [4.421743170412613, 52.23373823600502], [4.421713402107831, 52.233703424471095], [4.421613547765117, 52.23358666327579], [4.421597767058853, 52.23356821066285], [4.421571932308173, 52.23357696260762], [4.421484305568813, 52.23360737633523], [4.421249546898075, 52.23332910515201], [4.421252673179509, 52.2333281222298], [4.421081087386095, 52.2331247205542], [4.421035201207726, 52.23307032445998], [4.420973097813354, 52.23299670447172], [4.420954929879221, 52.232975151040165], [4.420936640670269, 52.232981322006985], [4.420877918131308, 52.23300113632025], [4.420872905611718, 52.23300282825912], [4.420800307568975, 52.23302732338244], [4.420697623833976, 52.233061978056504], [4.420604832395214, 52.23309328904747], [4.4205486225180985, 52.23311225279278], [4.420538398505736, 52.23310922094378], [4.420448084610421, 52.23309746384623], [4.420440893618477, 52.23310003946478], [4.420439655387779, 52.23310151240351], [4.420422954255328, 52.23310425016555], [4.420422440848455, 52.23310443292028], [4.420382732135354, 52.23311084912542], [4.420361249024199, 52.23312050469986], [4.420327741352062, 52.23313595997547], [4.420292387938453, 52.2331735887166], [4.420215620639269, 52.23320041777568], [4.419684413672492, 52.23338508842991], [4.419644058329299, 52.23339901692835], [4.419634945692882, 52.233402172682155], [4.419140466740491, 52.233572837752284], [4.418865281985341, 52.23332649668867], [4.417092825479699, 52.2313614834839], [4.41539903845353, 52.22937461854244], [4.413690943383371, 52.22737862138904], [4.411933781088552, 52.225404663548744], [4.410098287763557, 52.22345250044853], [4.40820712955558, 52.221540084177875], [4.4063097643769, 52.21959319853268], [4.404449631254381, 52.2176224550345], [4.402435263464049, 52.215747774435975], [4.401658729298994, 52.21469956881949], [4.401471233339096, 52.214446469119345], [4.400881594940205, 52.21365050056975], [4.400450915978092, 52.213114721206566], [4.400075941067656, 52.21265754555333], [4.399799599463217, 52.21237107770139], [4.399790021533072, 52.21235098585005], [4.399701367692577, 52.2121650314313], [4.399730385618801, 52.21201530463552], [4.399767355687821, 52.211874239034614], [4.399781517740831, 52.211861908554525], [4.399889831210545, 52.21180284381015], [4.400036569533517, 52.21174504402696], [4.4004508612412065, 52.21157397065503], [4.400714918306828, 52.21147120180853], [4.4008840039397725, 52.21140056348629], [4.401007073108071, 52.21133381903848], [4.401097315768906, 52.21127464896305], [4.4011634406256, 52.211213682858904], [4.4012247944996, 52.21112299899437], [4.401250456407876, 52.21108740353221], [4.40126898461922, 52.21104687678335], [4.4012899295325685, 52.21103533261744], [4.401173179795336, 52.21097367338868], [4.401181341609743, 52.21095475626446], [4.401303494553748, 52.21085858843941], [4.401920021221309, 52.21043257260143], [4.402740731586869, 52.20987539705955], [4.403303971777654, 52.209490502864824], [4.403501204352528, 52.20937417369389], [4.4035842292039495, 52.20932979222596], [4.403736676371086, 52.20927175768608], [4.403871158739513, 52.209206635183634], [4.404200947956335, 52.20907715144244], [4.404518584182696, 52.208954892972805], [4.404666176416487, 52.20890120406854], [4.404830076798861, 52.208856644466714], [4.404979473887999, 52.20883076230537], [4.405242880891082, 52.20879937190708], [4.40557704960915, 52.20876591502096], [4.4058580727240795, 52.20873201724779], [4.4060238499881255, 52.20870446325634], [4.406466784267399, 52.20862343692667], [4.406510433515852, 52.20871482496048], [4.40679921524375, 52.20866938628514], [4.40682021242007, 52.20872204746247], [4.406890282740523, 52.20876797663934], [4.407109186201669, 52.208888037262305], [4.407330101905373, 52.209004471176065], [4.407553897341386, 52.20912041083127], [4.407718278530768, 52.20920217405653], [4.4077816587225715, 52.20923370081815], [4.407914539007588, 52.20930963143156], [4.40772289032818, 52.209390733905735], [4.407037041927271, 52.209661154503706], [4.406217281349079, 52.20998045378672], [4.405720802794986, 52.210184466312306], [4.404612012755622, 52.21061427081928], [4.404379690941623, 52.21070425239733], [4.404256287158908, 52.21058080497265], [4.404220964591762, 52.21059526983011], [4.404208476490901, 52.21060024070257], [4.404207905243678, 52.21059967147544], [4.403820077282561, 52.210748683624786], [4.403930116062433, 52.21085798932107], [4.403944130072132, 52.210872060509736], [4.403297982179146, 52.21111833997802], [4.403255760746018, 52.21107280616673], [4.403184750696973, 52.21099622379107], [4.402810158100853, 52.21115031623908], [4.402885501083653, 52.211218119148754], [4.402930334553477, 52.21125846519607], [4.402479146316904, 52.211430429628294], [4.402472739178268, 52.21143286957006], [4.402463643381416, 52.21143633693096], [4.402354684475007, 52.211386173510476], [4.402354354131332, 52.21138615817118], [4.402245833725204, 52.21142935175501], [4.402173242742206, 52.21140374763251], [4.402150042460716, 52.21141366601243], [4.4021499952099, 52.21141368539268], [4.402150068190065, 52.21141375970639], [4.402190243346311, 52.21145181108415], [4.4028927716884905, 52.21211719120162], [4.4029180702538175, 52.21221678220144], [4.402936251987681, 52.21223560984226], [4.403058789606273, 52.2123624974696], [4.403127202363984, 52.21242739038075], [4.403065617586233, 52.21250889608853], [4.403060929327405, 52.212565877530764], [4.403151860759477, 52.21255315286007], [4.403265835956619, 52.21251202990299], [4.403344709268898, 52.21257251206874], [4.403424100358104, 52.212578399448184], [4.4036054562482265, 52.21255549076573], [4.403888158978082, 52.21248747188247], [4.404013158157162, 52.21246461453289], [4.4040198094754, 52.21247246464706], [4.404027965060332, 52.21248124050693], [4.404036105684493, 52.2124902966792], [4.404044252203456, 52.212499351102295], [4.404052509831838, 52.212508410045366], [4.4040606592437, 52.212517466289036], [4.404068806067075, 52.21252624207294], [4.4040769525595564, 52.21253529829108], [4.40408419600034, 52.212543237822665], [4.404159022473084, 52.21262895568352], [4.404295904696167, 52.21272531462969], [4.404418086108285, 52.21276256747619], [4.404541400452265, 52.212753762361295], [4.404638139750152, 52.21273153382761], [4.404798864442542, 52.212716300275424], [4.404965716077372, 52.21267190343363], [4.405040383337287, 52.21265539092386], [4.405208046859516, 52.21251184784576], [4.405238206131646, 52.21249024252858], [4.4054218298143475, 52.212358696553764], [4.4053718311821175, 52.21230729867822], [4.40536684816976, 52.212302483510236], [4.404916709227645, 52.21186731491998], [4.404848685675377, 52.21180154722409], [4.404795343717865, 52.21171462704165], [4.405009975054013, 52.21162849555076], [4.405086094051554, 52.211597949846656], [4.4051391455986, 52.21157676328206], [4.40519714591033, 52.2116058952822], [4.405232808406382, 52.21162164112946], [4.405286587855918, 52.21164006517209], [4.405332110119101, 52.211644094834924], [4.405365877198609, 52.211647185412865], [4.405456309117078, 52.21164147655196], [4.405570437593375, 52.21161883098432], [4.405639284134883, 52.211596651969835], [4.405705255885339, 52.211569070368334], [4.405716204261835, 52.21162431230798], [4.405728647419459, 52.211691408867296], [4.40574788116146, 52.21179512122356], [4.405787531345813, 52.211871654329904], [4.405860105690367, 52.21194233100371], [4.405862175655852, 52.21194434632619], [4.405862694219689, 52.21194485128925], [4.406054828354751, 52.212069822630234], [4.40648074790425, 52.21230559408868], [4.407240848668815, 52.212653005385484], [4.408036245248725, 52.212909687190404], [4.4080623822778815, 52.212918121121206], [4.408072901878633, 52.21292270164935], [4.408096653655337, 52.21292907902533], [4.408342088165006, 52.21299684068199], [4.408915394463778, 52.21314737299771], [4.409260043900155, 52.21323150104281], [4.409396606886856, 52.2132648374301], [4.409734182923131, 52.2133535830507], [4.40996214226995, 52.21340518833587], [4.410083382620963, 52.21341265079558], [4.410111749558264, 52.213405838662275], [4.4101406731830926, 52.2134187498275], [4.410221060011661, 52.21344499953167], [4.410223442660377, 52.21344577966353], [4.4102707769445315, 52.21346123583994], [4.410377394640507, 52.21345303250964], [4.410380003664351, 52.21345283118292], [4.4104570621388905, 52.21345029218583], [4.410561642164697, 52.21343037256369], [4.410642259426093, 52.213392838780635], [4.41069446696667, 52.21333709323238], [4.410724653521607, 52.21317498946134], [4.410779050248148, 52.21311841887125], [4.410846390704426, 52.213081618262635], [4.41092577411957, 52.2130533428984], [4.410939205397304, 52.21295682892052], [4.41086583857307, 52.21266189250432], [4.410846226350696, 52.212583042485846], [4.410806988633581, 52.21241727615576], [4.410957647910465, 52.212574134130584], [4.411273158280351, 52.21288740230779], [4.41190273527434, 52.213491454940225], [4.4120785463507, 52.21366424882124], [4.412305284591734, 52.21388689718572], [4.412501482263761, 52.21407895902289], [4.412622858059013, 52.2141954039838], [4.412810739797468, 52.21437588073899], [4.413333873353786, 52.214856860774276], [4.41363485057934, 52.21514079025137], [4.413673730286071, 52.215173974097226], [4.413899374584516, 52.21536655672124], [4.413964733142027, 52.215335513033224], [4.41452579650743, 52.21585799298153], [4.414834394029461, 52.21614536346238], [4.415305090700538, 52.21664680137587], [4.415304512890537, 52.216649944345114], [4.415771890878097, 52.217175412125286], [4.416036716252014, 52.21747627833008], [4.416858064708902, 52.21840937757018], [4.4168729724259554, 52.218494521868344], [4.416879338872457, 52.218514051060886], [4.416854730813967, 52.21852186825692], [4.41695095839646, 52.21876540939971], [4.4170931370998945, 52.21896737750489], [4.417125211330831, 52.21900864859715], [4.417132410888593, 52.219019362543676], [4.417141901170355, 52.219030124071146], [4.417224858138972, 52.21913686368027], [4.4174339633949575, 52.219388772116105], [4.417673193720813, 52.219622177792644], [4.417822409840312, 52.219768546831894], [4.417905610593863, 52.219846931466336], [4.418059201596278, 52.21999879383265], [4.418307568458481, 52.22023552692994], [4.4185248785866476, 52.22043569536007], [4.418588159573592, 52.2204948140304], [4.418599229237084, 52.22050417991411], [4.418990960877854, 52.22086500492561], [4.419354662473157, 52.22129668592218], [4.419391405733028, 52.22133501229225], [4.4195537395017075, 52.22152582967446], [4.419631258361631, 52.221498529972706], [4.41966758562513, 52.22154302334775], [4.420751446846687, 52.22287048158943], [4.421275217541987, 52.223429939424584], [4.421296841727671, 52.223452500876185], [4.421342196197038, 52.223499787409615], [4.421924992101974, 52.22410745661388], [4.422342466367391, 52.22455386757157], [4.422706418811411, 52.22494289693969], [4.42274897738143, 52.22498838394877], [4.422774254992237, 52.22501540439308], [4.423107065157612, 52.22538774025015], [4.423505416148847, 52.22582937971939], [4.423792126422586, 52.226148593775775], [4.423971762332289, 52.22634971515218], [4.424001153001387, 52.226384856568586], [4.424234875803244, 52.22666438704492], [4.424458589688961, 52.226935319887964], [4.424726654517151, 52.22730581256154], [4.424920979598459, 52.22757541016739], [4.425113824045281, 52.22781133316875], [4.425146010218268, 52.227850705389585], [4.425225605242014, 52.22794844569765], [4.425486231461657, 52.22821251431944], [4.425658921940661, 52.22833943347588], [4.426092721342734, 52.228649374869576], [4.42653886068561, 52.228953469214986], [4.426607371576683, 52.22900347036345], [4.426662898944603, 52.22902672537354], [4.4267269573382455, 52.22903958912243], [4.426778157507346, 52.22904296985204], [4.426837337915956, 52.22904303584162], [4.427495404260842, 52.22899429344079], [4.427657426046541, 52.228976770404806], [4.427797922796658, 52.228960817822355], [4.428199318890785, 52.22887660172249], [4.428246264638261, 52.22892951248837], [4.428369491698944, 52.22890457269177], [4.4283958417334945, 52.2289406500327], [4.428883197124752, 52.22908099444088], [4.429261162701067, 52.22918983536447], [4.429372544845099, 52.22922637564929], [4.429448333627749, 52.22926469809742], [4.429542860984934, 52.22932083269976], [4.4295526685204445, 52.22933988837273], [4.429581989956632, 52.22939686131679], [4.429556571648662, 52.229449070615686], [4.429066355761158, 52.22988092223091], [4.428817428332514, 52.23010561316065], [4.428931485753631, 52.23016132157824], [4.428936636968695, 52.230163836061365], [4.428914508331175, 52.23020895855525], [4.428873637573835, 52.23029229202493], [4.4288781493156835, 52.23031065042965], [4.4288873663751716, 52.23034816787084], [4.428892427235789, 52.230368763429524], [4.429016434303958, 52.23055148466634], [4.429044621030947, 52.23062664358347], [4.429034975581479, 52.23074431773129], [4.429039016048663, 52.230769482755164], [4.429080881126433, 52.230860560388116], [4.429112405147892, 52.230932478203215], [4.429180625656008, 52.23099605051095], [4.429374372953204, 52.231091575956654], [4.4295971111730355, 52.23120139387212], [4.42960040145579, 52.23120835953244], [4.429600649290887, 52.23121242426234], [4.429599650031242, 52.23121593958163], [4.429597194694505, 52.23122052349104], [4.429594633530438, 52.2312218590625], [4.4289302610052665, 52.23171343645213], [4.428835537315627, 52.23178352188995], [4.429615166255523, 52.23216638684931], [4.429635505804691, 52.23217637508777], [4.429655486074911, 52.232186188733046], [4.4296319024638136, 52.23220773218097], [4.42958282685115, 52.23225256260347], [4.429784900499487, 52.23245687931198], [4.429909297093987, 52.23257559773848], [4.429895512080745, 52.23261964560901], [4.429987759215409, 52.23273237690383], [4.4300407520522205, 52.232823052665466], [4.430275771891437, 52.23289902975377], [4.43033755035067, 52.23293778274387], [4.430257612740609, 52.232999575135075], [4.430242020648797, 52.233036098662275], [4.430221333330355, 52.23305221967163], [4.430231905474613, 52.23305979080113], [4.43022593225045, 52.23307378125413], [4.430238305284557, 52.23306437366467], [4.43060812358675, 52.23332921437687], [4.430643766508402, 52.233357591533405], [4.430666973607471, 52.23340075621061], [4.430666207673891, 52.233436421033474], [4.430642189148658, 52.23354296274991], [4.431068188149518, 52.2337890965566], [4.431497666835832, 52.23404930208174], [4.431496780992264, 52.23409058542492], [4.431901199358058, 52.23436341747362], [4.431904130131137, 52.23437638794211], [4.431899819006913, 52.23438620695966], [4.43185311524266, 52.23442856323582], [4.432012457315222, 52.234550070627925], [4.432019586488727, 52.234558002042796], [4.432022931143576, 52.23456273447209], [4.4320234970815005, 52.23456235345031], [4.4322118551153915, 52.23477189662873], [4.432431295569872, 52.23502450206848], [4.432677485019452, 52.23531523953037], [4.432750899866096, 52.23539588447949], [4.432776706424738, 52.23542446371152], [4.43284817107789, 52.23552672230419], [4.433130949353432, 52.23597842039191], [4.433267506472595, 52.236203107491384], [4.433405614573957, 52.23646741121668], [4.433436298238355, 52.236503331775936], [4.433474343054151, 52.236532007856596], [4.433646247182667, 52.23662833561281], [4.433798294297629, 52.23672164095899], [4.433829795528085, 52.23674100615165], [4.43376978994236, 52.236767044488595], [4.433729231507858, 52.23679873343007], [4.433637510711244, 52.23692795486408], [4.433603125676545, 52.23695780605706], [4.433580940900655, 52.23699153082657], [4.433577181594012, 52.23702351680839], [4.433592118775674, 52.23704247508687], [4.433667824103872, 52.23708829023031], [4.433719561037636, 52.237107538370715], [4.433994015166199, 52.237183205929824], [4.434061294198831, 52.23719316859044], [4.4341149735179135, 52.23719144454593], [4.434166351224613, 52.23722886393477], [4.434240894478743, 52.2371873911266], [4.434248541985047, 52.237187147223274], [4.43441437864226, 52.237226135241414], [4.434368483326017, 52.237378088856964], [4.434368473889556, 52.237378119341024], [4.4342819299452865, 52.23760358479834]], [[4.426385522471208, 52.23142143696145], [4.42670307092893, 52.2314699313005], [4.426798367885355, 52.231196253222066], [4.426486426972713, 52.231152547878175], [4.426385522471208, 52.23142143696145]], [[4.426507762681558, 52.23171763752165], [4.426303104901438, 52.23153529116933], [4.426062488112864, 52.23163853982463], [4.426261789715353, 52.23181692230858], [4.426265209124156, 52.23181937338118], [4.426507762681558, 52.23171763752165]], [[4.425389294164899, 52.23172912403956], [4.425297976806257, 52.23161396348515], [4.425283336716662, 52.23161938824832], [4.425047781522934, 52.231710327016486], [4.425150132737324, 52.231800357304785], [4.425159412598864, 52.23180819970501], [4.425389294164899, 52.23172912403956]], [[4.425798079555945, 52.23187722542847], [4.425747190621683, 52.231826996991416], [4.425669506428506, 52.23186238528071], [4.425634119677128, 52.231874691623894], [4.4256840473876595, 52.23192638367281], [4.425798079555945, 52.23187722542847]]]]}}]}